[{"OBJECT_NAME":"STARLINK-36473","OBJECT_ID":"2026-002W","EPOCH":"2026-03-09T18:38:30.151968","MEAN_MOTION":15.27591602,"ECCENTRICITY":0.00016319,"INCLINATION":43.0009,"RA_OF_ASC_NODE":324.6501,"ARG_OF_PERICENTER":269.827,"MEAN_ANOMALY":90.2395,"EPHEMERIS_TYPE":0,"CLASSIFICATION_TYPE":"U","NORAD_CAT_ID":67325,"ELEMENT_SET_NO":999,"REV_AT_EPOCH":1125,"BSTAR":0.00097584716,"MEAN_MOTION_DOT":0.00026698,"MEAN_MOTION_DDOT":0},{"OBJECT_NAME":"CZ-6A DEB","OBJECT_ID":"2023-168D","EPOCH":"2026-03-09T19:03:52.964928","MEAN_MOTION":15.28240044,"ECCENTRICITY":0.00013417,"INCLINATION":97.7802,"RA_OF_ASC_NODE":98.3362,"ARG_OF_PERICENTER":174.0661,"MEAN_ANOMALY":186.0594,"EPHEMERIS_TYPE":0,"CLASSIFICATION_TYPE":"U","NORAD_CAT_ID":58202,"ELEMENT_SET_NO":999,"REV_AT_EPOCH":12922,"BSTAR":0.0014474773,"MEAN_MOTION_DOT":0.00039923,"MEAN_MOTION_DDOT":0}]
